GPS BIIR-2  (PRN 13)    
1 24876U 97035A   17176.04549320  .00000046  00000-0  00000-0 0  9990
2 24876  55.5480 226.8014 0033927 105.6472 254.8160  2.00561587146188
GPS BIIR-3  (PRN 11)    
1 25933U 99055A   17176.26460093 -.00000058  00000-0  00000-0 0  9996
2 25933  51.6372  77.2848 0166756  94.8630 352.6555  2.00557885129817
GPS BIIR-4  (PRN 20)    
1 26360U 00025A   17176.25929781  .00000023  00000-0  00000-0 0  9994
2 26360  53.1205 154.5539 0041100  92.4955  94.1830  2.00560222125504
GPS BIIR-5  (PRN 28)    
1 26407U 00040A   17176.13504616 -.00000078  00000-0  00000-0 0  9997
2 26407  56.6320 344.8384 0199179 270.1085 108.1825  2.00566626124180
GPS BIIR-6  (PRN 14)    
1 26605U 00071A   17176.25454656  .00000044  00000-0  00000-0 0  9994
2 26605  55.1196 224.5214 0094612 248.4023 124.7124  2.00564576121788
GPS BIIR-7  (PRN 18)    
1 26690U 01004A   17175.85986781  .00000028  00000-0  00000-0 0  9991
2 26690  53.0422 157.5098 0183659 257.1684 300.7056  2.00569942120170
GPS BIIR-8  (PRN 16)    
1 27663U 03005A   17176.24019328 -.00000078  00000-0  00000-0 0  9999
2 27663  56.7007 344.5737 0092321  24.9931 186.9951  2.00558936105541
GPS BIIR-9  (PRN 21)    
1 27704U 03010A   17175.91249424 -.00000038  00000-0  00000-0 0  9992
2 27704  53.8623  97.9008 0242042 264.8365  31.1810  2.00564935104339
GPS BIIR-10 (PRN 22)    
1 28129U 03058A   17175.73721975  .00000029  00000-0  00000-0 0  9991
2 28129  52.9306 157.5039 0077298 262.0647  97.0303  2.00548731 99010
GPS BIIR-11 (PRN 19)    
1 28190U 04009A   17176.12074258 -.00000066  00000-0  00000-0 0  9997
2 28190  56.0082  45.6027 0100793  56.8587 221.9088  2.00564168 97217
GPS BIIR-12 (PRN 23)    
1 28361U 04023A   17176.01497338  .00000049  00000-0  00000-0 0  9999
2 28361  54.1062 219.6353 0119605 220.5615 252.1535  2.00556893 95276
GPS BIIR-13 (PRN 02)    
1 28474U 04045A   17176.26047155 -.00000037  00000-0  00000-0 0  9991
2 28474  54.2414  97.3604 0170472 247.4636  41.3641  2.00547294 92664
GPS BIIRM-1 (PRN 17)    
1 28874U 05038A   17176.12092366 -.00000067  00000-0  00000-0 0  9990
2 28874  56.1639  42.8653 0118505 254.4941  46.0940  2.00566935 86067
GPS BIIRM-2 (PRN 31)    
1 29486U 06042A   17176.23844868 -.00000030  00000-0  00000-0 0  9990
2 29486  55.3922 281.9673 0084670 343.9829 321.7930  2.00557648 78665
GPS BIIRM-3 (PRN 12)    
1 29601U 06052A   17175.25706436 -.00000075  00000-0  00000-0 0  9998
2 29601  56.6739 343.5313 0064649  50.0693 310.4967  2.00553267 77677
GPS BIIRM-4 (PRN 15)    
1 32260U 07047A   17175.58315417  .00000055  00000-0  00000-0 0  9996
2 32260  53.2326 215.9945 0091499  32.0635 328.5731  2.00576428 71069
GPS BIIRM-5 (PRN 29)    
1 32384U 07062A   17175.69794955 -.00000064  00000-0  00000-0 0  9991
2 32384  56.2283  43.4646 0005896  10.5757 212.0836  2.00571222 69770
GPS BIIRM-6 (PRN 07)    
1 32711U 08012A   17175.98241487 -.00000029  00000-0  00000-0 0  9991
2 32711  55.1208 281.3438 0108515 212.5294 146.8304  2.00556519 68004
GPS BIIRM-8 (PRN 05)    
1 35752U 09043A   17176.14426696  .00000031  00000-0  00000-0 0  9992
2 35752  54.2566 159.1950 0049161  28.7780 111.7924  2.00551682 57595
GPS BIIF-1  (PRN 25)    
1 36585U 10022A   17176.10367042 -.00000078  00000-0  00000-0 0  9993
2 36585  55.9802 340.3112 0063497  45.7958 173.6419  2.00575544 51828
GPS BIIF-2  (PRN 01)    
1 37753U 11036A   17176.23767931 -.00000032  00000-0  00000-0 0  9992
2 37753  55.4482 100.4544 0066802  30.9107   9.6147  2.00562271 43510
GPS BIIF-3  (PRN 24)    
1 38833U 12053A   17175.17419269 -.00000026  00000-0  00000-0 0  9995
2 38833  54.1496 278.2868 0055768  25.7096 334.5986  2.00561662 34550
GPS BIIF-4  (PRN 27)    
1 39166U 13023A   17176.02438704 -.00000068  00000-0  00000-0 0  9999
2 39166  55.8708  39.8816 0047993  18.8747 341.3647  2.00564799 30117
GPS BIIF-5  (PRN 30)    
1 39533U 14008A   17175.53053541 -.00000033  00000-0  00000-0 0  9990
2 39533  54.3031 283.5688 0029368 183.8511 176.1520  2.00564494 23928
GPS BIIF-6  (PRN 06)    
1 39741U 14026A   17175.80640646 -.00000034  00000-0  00000-0 0  9990
2 39741  55.4347  99.9917 0009406 292.5742  67.3164  2.00560885 22766
GPS BIIF-7  (PRN 09)    
1 40105U 14045A   17175.89801943  .00000051  00000-0  00000-0 0  9993
2 40105  54.6297 219.5507 0004774 123.6005 236.5295  2.00570957 20338
GPS BIIF-8  (PRN 03)    
1 40294U 14068A   17176.27089954  .00000032  00000-0  00000-0 0  9999
2 40294  55.0041 160.1770 0007640 348.8758  11.0823  2.00558786 19442
GPS BIIF-9  (PRN 26)    
1 40534U 15013A   17175.90811578 -.00000080  00000-0  00000-0 0  9995
2 40534  54.9350 339.4072 0018011 358.3125   1.6751  2.00557902 16052
GPS BIIF-10  (PRN 08)   
1 40730U 15033A   17175.06847405 -.00000064  00000-0  00000-0 0  9992
2 40730  55.4047  39.5874 0027010 319.3606  40.5000  2.00566448 14228
GPS BIIF-11  (PRN 10)   
1 41019U 15062A   17175.62141548  .00000036  00000-0  00000-0 0  9990
2 41019  55.0132 159.9910 0026798 205.8263 154.0178  2.00563543 12057
GPS BIIF-12  (PRN 32)   
1 41328U 16007A   17175.70959563  .00000054  00000-0  00000-0 0  9996
2 41328  54.8867 219.7492 0014600 221.2423 138.7328  2.00555997 10116
